NORAD_CAT_ID,OBJECT_NAME,OBJECT_TYPE,EPOCH,MEAN_MOTION,ECCENTRICITY,INCLINATION,RA_OF_ASC_NODE,ARG_OF_PERICENTER,MEAN_ANOMALY,BSTAR,MEAN_MOTION_DOT,MEAN_MOTION_DDOT,TLE_LINE0,TLE_LINE1,TLE_LINE2,SEMIMAJOR_AXIS,PERIOD,APOGEE,PERIGEE,DECAYED
55293.0,STARLINK-5287,PAYLOAD,2023-06-15 06:00:00,14.99321776,0.0002905,70.0014,21.9004,269.6277,33.6244,-0.0049454,-0.00060123,0.0,0 STARLINK-5287,1 55293U 23010AA  23166.25001157 -.00060123  00000-0 -49454-2 0  9991,2 55293  70.0014  21.9004 0002905 269.6277  33.6244 14.99321776 23409,6947.128,96.043,571.011,566.974,0.0
55293.0,STARLINK-5287,PAYLOAD,2023-06-15 14:00:01,14.99285887,0.0002915,70.0016,21.0584,262.4482,39.4432,0.0022571,0.00027622,0.0,0 STARLINK-5287,1 55293U 23010AA  23166.58334491  .00027622  00000-0  22571-2 0  9993,2 55293  70.0016  21.0584 0002915 262.4482  39.4432 14.99285887  1305,6947.238,96.046,571.129,567.078,0.0
55293.0,STARLINK-5287,PAYLOAD,2023-06-15 20:00:01,14.99299958,0.0002953,70.0015,20.4274,266.823,304.0512,-0.00096162,-0.0001184,0.0,0 STARLINK-5287,1 55293U 23010AA  23166.83334491 -.00011840  00000-0 -96162-3 0  9996,2 55293  70.0015  20.4274 0002953 266.8230 304.0512 14.99299958  1308,6947.195,96.045,571.111,567.008,0.0
55293.0,STARLINK-5287,PAYLOAD,2023-06-16 14:00:01,14.99318884,0.0003003,70.0014,18.5333,262.1517,35.6813,0.0015337,0.00018731,0.0,0 STARLINK-5287,1 55293U 23010AA  23167.58334491  .00018731  00000-0  15337-2 0  9997,2 55293  70.0014  18.5333 0003003 262.1517  35.6813 14.99318884 23603,6947.137,96.044,571.088,566.915,0.0
55293.0,STARLINK-5287,PAYLOAD,2023-06-16 22:00:00,14.99335767,0.0003007,70.0013,17.6915,271.0592,25.4552,-0.0051503,-0.00062611,0.0,0 STARLINK-5287,1 55293U 23010AA  23167.91667824 -.00062611  00000-0 -51503-2 0  9996,2 55293  70.0013  17.6915 0003007 271.0592  25.4552 14.99335767  1303,6947.084,96.043,571.038,566.86,0.0
55293.0,STARLINK-5287,PAYLOAD,2023-06-17 06:00:02,14.9928965,0.000299,70.0011,16.8495,271.5429,23.6949,-0.0031734,-0.00038699,0.0,0 STARLINK-5287,1 55293U 23010AA  23168.25002315 -.00038699  00000-0 -31734-2 0  9995,2 55293  70.0011  16.8495 0002990 271.5429  23.6949 14.99289650 23706,6947.227,96.045,571.169,567.015,0.0
55293.0,STARLINK-5287,PAYLOAD,2023-06-17 14:00:01,14.99280558,0.0003013,70.0014,16.0079,267.3992,26.3837,0.0011309,0.00013764,0.0,0 STARLINK-5287,1 55293U 23010AA  23168.58334491  .00013764  00000-0  11309-2 0  9994,2 55293  70.0014  16.0079 0003013 267.3992  26.3837 14.99280558  1300,6947.255,96.046,571.213,567.027,0.0
55293.0,STARLINK-5287,PAYLOAD,2023-06-17 19:05:56,14.99286769,0.0002974,69.9991,15.4715,265.3153,94.7666,-7.6774e-05,-1.033e-05,0.0,0 STARLINK-5287,1 55293U 23010AA  23168.79579176 -.00001033  00000-0 -76774-4 0  9995,2 55293  69.9991  15.4715 0002974 265.3153  94.7666 14.99286769 24093,6947.236,96.046,571.167,567.035,0.0
55293.0,STARLINK-5287,PAYLOAD,2023-06-17 22:00:01,14.99267019,0.0003003,70.0011,15.1661,274.405,18.0767,0.0027713,0.0003395,0.0,0 STARLINK-5287,1 55293U 23010AA  23168.91668981  .00033950  00000-0  27713-2 0  9990,2 55293  70.0011  15.1661 0003003 274.4050  18.0767 14.99267019 23803,6947.297,96.047,571.248,567.075,0.0
55293.0,STARLINK-5287,PAYLOAD,2023-06-18 01:30:13,14.99287776,0.0002982,69.999,14.7976,265.8469,94.235,-6.3849e-05,-8.75e-06,0.0,0 STARLINK-5287,1 55293U 23010AA  23169.06265989 -.00000875  00000-0 -63849-4 0  9992,2 55293  69.9990  14.7976 0002982 265.8469  94.2350 14.99287776 23832,6947.233,96.046,571.169,567.026,0.0
55293.0,STARLINK-5287,PAYLOAD,2023-06-18 12:42:43,14.99296298,0.0002994,69.999,13.6182,265.4241,94.6576,-0.0001096,-1.434e-05,0.0,0 STARLINK-5287,1 55293U 23010AA  23169.52967561 -.00001434  00000-0 -10960-3 0  9995,2 55293  69.9990  13.6182 0002994 265.4241  94.6576 14.99296298 24201,6947.206,96.045,571.151,566.991,0.0
55293.0,STARLINK-5287,PAYLOAD,2023-06-18 20:43:05,14.99299882,0.0002882,69.9994,12.776,267.5667,92.5163,-6.7993e-05,-9.26e-06,0.0,0 STARLINK-5287,1 55293U 23010AA  23169.86325704 -.00000926  00000-0 -67993-4 0  9993,2 55293  69.9994  12.7760 0002882 267.5667  92.5163 14.99299882 24254,6947.195,96.045,571.062,567.058,0.0
55293.0,STARLINK-5287,PAYLOAD,2023-06-19 06:19:31,14.99306064,0.0002852,69.9995,11.765,268.532,91.5513,-9.311e-05,-1.233e-05,0.0,0 STARLINK-5287,1 55293U 23010AA  23170.26355439 -.00001233  00000-0 -93110-4 0  9999,2 55293  69.9995  11.7650 0002852 268.5320  91.5513 14.99306064 24019,6947.176,96.044,571.022,567.06,0.0
55293.0,STARLINK-5287,PAYLOAD,2023-06-19 17:32:01,14.99298759,0.0002959,69.9992,10.5855,270.8497,89.2324,0.00020755,2.446e-05,0.0,0 STARLINK-5287,1 55293U 23010AA  23170.73056848  .00002446  00000-0  20755-3 0  9992,2 55293  69.9992  10.5855 0002959 270.8497  89.2324 14.99298759 24384,6947.199,96.045,571.119,567.008,0.0
55293.0,STARLINK-5287,PAYLOAD,2023-06-20 09:32:44,14.99299442,0.0002853,69.9996,8.9008,273.8165,86.2669,0.00010442,1.184e-05,0.0,0 STARLINK-5287,1 55293U 23010AA  23171.39773903  .00001184  00000-0  10442-3 0  9993,2 55293  69.9996   8.9008 0002853 273.8165  86.2669 14.99299442 24184,6947.197,96.045,571.044,567.08,0.0
55293.0,STARLINK-5287,PAYLOAD,2023-06-20 20:45:15,14.99301453,0.0002855,69.9997,7.7215,273.7739,86.3094,3.5056e-05,3.35e-06,0.0,0 STARLINK-5287,1 55293U 23010AA  23171.86475706  .00000335  00000-0  35056-4 0  9991,2 55293  69.9997   7.7215 0002855 273.7739  86.3094 14.99301453 24550,6947.19,96.045,571.039,567.072,0.0
55293.0,STARLINK-5287,PAYLOAD,2023-06-21 12:45:58,14.99299784,0.0002959,69.9999,6.0361,275.5122,84.57,-8.1294e-05,-1.088e-05,0.0,0 STARLINK-5287,1 55293U 23010AA  23172.53192780 -.00001088  00000-0 -81294-4 0  9997,2 55293  69.9999   6.0361 0002959 275.5122  84.5700 14.99299784 24352,6947.196,96.045,571.116,567.005,0.0
55293.0,STARLINK-5287,PAYLOAD,2023-06-21 14:22:02,14.99301954,0.0002872,69.9998,5.8682,273.2841,86.799,-0.00010894,-1.427e-05,0.0,0 STARLINK-5287,1 55293U 23010AA  23172.59864411 -.00001427  00000-0 -10894-3 0  9994,2 55293  69.9998   5.8682 0002872 273.2841  86.7990 14.99301954 24663,6947.189,96.045,571.049,567.059,0.0
55293.0,STARLINK-5287,PAYLOAD,2023-06-21 19:10:15,14.99303545,0.0002957,69.9996,5.3623,272.8672,87.2149,-9.0076e-05,-1.196e-05,0.0,0 STARLINK-5287,1 55293U 23010AA  23172.79879248 -.00001196  00000-0 -90076-4 0  9994,2 55293  69.9996   5.3623 0002957 272.8672  87.2149 14.99303545 24695,6947.184,96.045,571.103,566.995,0.0
55293.0,STARLINK-5287,PAYLOAD,2023-06-21 22:22:24,14.99305367,0.0002954,69.9996,5.0253,273.3749,86.7072,-6.4978e-05,-8.89e-06,0.0,0 STARLINK-5287,1 55293U 23010AA  23172.93222390 -.00000889  00000-0 -64978-4 0  9990,2 55293  69.9996   5.0253 0002954 273.3749  86.7072 14.99305367 24412,6947.178,96.044,571.095,566.991,0.0
55293.0,STARLINK-5287,PAYLOAD,2023-06-22 22:23:28,14.99308887,0.0003032,69.9994,2.498,267.6875,92.3937,-4.2177e-05,-6.1e-06,0.0,0 STARLINK-5287,1 55293U 23010AA  23173.93297122 -.00000610  00000-0 -42177-4 0  9995,2 55293  69.9994   2.4980 0003032 267.6875  92.3937 14.99308887 24561,6947.167,96.044,571.139,566.926,0.0
55293.0,STARLINK-5287,PAYLOAD,2023-06-23 19:12:40,14.99110529,0.0002966,69.9995,0.3085,270.6664,89.4156,-0.0020252,-0.00024665,0.0,0 STARLINK-5287,1 55293U 23010AA  23174.80046592 -.00024665  00000-0 -20252-2 0  9999,2 55293  69.9995   0.3085 0002966 270.6664  89.4156 14.99110529 24698,6947.78,96.057,571.706,567.585,0.0
55293.0,STARLINK-5287,PAYLOAD,2023-06-23 22:24:57,14.9901727,0.0003358,69.9994,359.9721,272.0118,88.0656,-0.0029744,-0.00036038,0.0,0 STARLINK-5287,1 55293U 23010AA  23174.93399699 -.00036038  00000-0 -29744-2 0  9994,2 55293  69.9994 359.9721 0003358 272.0118  88.0656 14.99017270 24715,6948.068,96.063,572.267,567.6,0.0
55293.0,STARLINK-5287,PAYLOAD,2023-06-24 06:25:42,14.9880341,0.0002835,69.9994,359.1299,286.3083,73.7764,-0.0049718,-0.0005964,0.0,0 STARLINK-5287,1 55293U 23010AA  23175.26784983 -.00059640  00000-0 -49718-2 0  9992,2 55293  69.9994 359.1299 0002835 286.3083  73.7764 14.98803410 24769,6948.729,96.077,572.564,568.624,0.0
55293.0,STARLINK-5287,PAYLOAD,2023-06-24 16:02:24,14.987261,0.0003363,69.9992,358.1208,267.1556,92.9219,-0.0053117,-0.00063551,0.0,0 STARLINK-5287,1 55293U 23010AA  23175.66833394 -.00063551  00000-0 -53117-2 0  9991,2 55293  69.9992 358.1208 0003363 267.1556  92.9219 14.98726100 24820,6948.968,96.082,573.17,568.496,0.0
55293.0,STARLINK-5287,PAYLOAD,2023-06-25 16:04:07,14.98635511,0.0003411,69.9992,355.5948,266.7643,93.3126,-0.0046674,-0.00055784,0.0,0 STARLINK-5287,1 55293U 23010AA  23176.66953318 -.00055784  00000-0 -46674-2 0  9990,2 55293  69.9992 355.5948 0003411 266.7643  93.3126 14.98635511 24971,6949.248,96.087,573.484,568.743,0.0
55293.0,STARLINK-5287,PAYLOAD,2023-06-25 22:28:36,14.98615088,0.000368,69.9992,354.9213,273.7216,86.3523,-0.0043864,-0.0005243,0.0,0 STARLINK-5287,1 55293U 23010AA  23176.93653329 -.00052430  00000-0 -43864-2 0  9992,2 55293  69.9992 354.9213 0003680 273.7216  86.3523 14.98615088 25017,6949.311,96.089,573.734,568.619,0.0
55293.0,STARLINK-5287,PAYLOAD,2023-06-26 09:41:35,14.98365371,0.0002956,69.9999,353.7439,275.1513,84.9309,-0.00074664,-8.999e-05,0.0,0 STARLINK-5287,1 55293U 23010AA  23177.40388456 -.00008999  00000-0 -74664-3 0  9995,2 55293  69.9999 353.7439 0002956 275.1513  84.9309 14.98365371 25082,6950.084,96.105,574.003,569.894,0.0
55293.0,STARLINK-5287,PAYLOAD,2023-06-26 22:00:00,14.98310949,0.0003357,70.0018,352.4502,275.5101,329.761,0.0029337,0.0003507,0.0,0 STARLINK-5287,1 55293U 23010AA  23177.91667824  .00035070  00000-0  29337-2 0  9994,2 55293  70.0018 352.4502 0003357 275.5101 329.7610 14.98310949 25151,6950.252,96.108,574.45,569.784,0.0
55293.0,STARLINK-5287,PAYLOAD,2023-06-27 14:00:01,14.98358486,0.0003384,70.0017,350.7692,268.5896,331.6253,-0.0028801,-0.00034316,0.0,0 STARLINK-5287,1 55293U 23010AA  23178.58334491 -.00034316  00000-0 -28801-2 0  9998,2 55293  70.0017 350.7692 0003384 268.5896 331.6253 14.98358486 25258,6950.105,96.105,574.322,569.618,0.0
